{
    "links": {
        "self": "http://www.neowsapp.com/rest/v1/neo/3639440?api_key=iIulBulltgU6a56xZRHN4H3l9WmuAYTsLGpBGhQ2"
    },
    "id": "3639440",
    "neo_reference_id": "3639440",
    "name": "(2013 LA)",
    "designation": "2013 LA",
    "nasa_jpl_url": "http://ssd.jpl.nasa.gov/sbdb.cgi?sstr=3639440",
    "absolute_magnitude_h": 24.6,
    "estimated_diameter": {
        "kilometers": {
            "estimated_diameter_min": 0.0319561887,
            "estimated_diameter_max": 0.0714562102
        },
        "meters": {
            "estimated_diameter_min": 31.9561886721,
            "estimated_diameter_max": 71.4562101727
        },
        "miles": {
            "estimated_diameter_min": 0.0198566489,
            "estimated_diameter_max": 0.0444008168
        },
        "feet": {
            "estimated_diameter_min": 104.8431420431,
            "estimated_diameter_max": 234.436392583
        }
    },
    "is_potentially_hazardous_asteroid": false,
    "close_approach_data": [
        {
            "close_approach_date": "2013-06-03",
            "close_approach_date_full": "2013-Jun-03 20:19",
            "epoch_date_close_approach": 1370290740000,
            "relative_velocity": {
                "kilometers_per_second": "10.6888046975",
                "kilometers_per_hour": "38479.6969109597",
                "miles_per_hour": "23909.7872278127"
            },
            "miss_distance": {
                "astronomical": "0.0571829783",
                "lunar": "22.2441785587",
                "kilometers": "8554451.753936221",
                "miles": "5315489.8373570098"
            },
            "orbiting_body": "Earth"
        },
        {
            "close_approach_date": "2122-06-04",
            "close_approach_date_full": "2122-Jun-04 11:34",
            "epoch_date_close_approach": 4810016040000,
            "relative_velocity": {
                "kilometers_per_second": "10.8650327137",
                "kilometers_per_hour": "39114.1177694514",
                "miles_per_hour": "24303.9916773572"
            },
            "miss_distance": {
                "astronomical": "0.0583826188",
                "lunar": "22.7108387132",
                "kilometers": "8733915.417501956",
                "miles": "5427003.3869447528"
            },
            "orbiting_body": "Earth"
        }
    ],
    "orbital_data": {
        "orbit_id": "9",
        "orbit_determination_date": "2017-04-06 08:45:42",
        "first_observation_date": "2013-06-01",
        "last_observation_date": "2013-06-09",
        "data_arc_in_days": 8,
        "observations_used": 31,
        "orbit_uncertainty": "8",
        "minimum_orbit_intersection": ".0563508",
        "jupiter_tisserand_invariant": "4.605",
        "epoch_osculation": "2456445.5",
        "eccentricity": ".2717405565528209",
        "semi_major_axis": "1.42613227633246",
        "inclination": "18.34576986314872",
        "ascending_node_longitude": "69.4393363780556",
        "orbital_period": "622.0683997755339",
        "perihelion_distance": "1.038594297843936",
        "perihelion_argument": "212.4304556693307",
        "aphelion_distance": "1.813670254820984",
        "perihelion_time": "2456475.515262493015",
        "mean_anomaly": "342.6297325159348",
        "mean_motion": ".5787144952707802",
        "equinox": "J2000",
        "orbit_class": {
            "orbit_class_type": "AMO",
            "orbit_class_description": "Near-Earth asteroid orbits similar to that of 1221 Amor",
            "orbit_class_range": "1.017 AU < q (perihelion) < 1.3 AU"
        }
    },
    "is_sentry_object": false
}